CTC1_L_00346001-01
1 10000U 26709DU  26075.70033565  .00000000  00000+0  00000-0 0  9993
2 10000  90.0000   0.0000 0000000   0.0000   0.0000 13.81096544    14
CTC1_L_00346001-02
1 10001U 22424WA  26075.70033565  .00000000  00000+0  00000-0 0  9994
2 10001  90.0000   0.0000 0000000   0.0000  90.0000 13.81096544    14
CTC1_L_00346001-03
1 10002U 22706GS  26075.70033565  .00000000  00000+0  00000-0 0  9998
2 10002  90.0000   0.0000 0000000   0.0000 180.0000 13.81096544    15
CTC1_L_00346001-04
1 10003U 23130NN  26075.70033565  .00000000  00000+0  00000-0 0  9991
2 10003  90.0000   0.0000 0000000   0.0000 270.0000 13.81096544    16
CTC1_L_00346002-01
1 10004U 26081UJ  26075.70033565  .00000000  00000+0  00000-0 0  9990
2 10004  90.0000  12.0000 0000000   0.0000  12.0000 13.81096544    14
CTC1_L_00346002-02
1 10005U 24917CR  26075.70033565  .00000000  00000+0  00000-0 0  9997
2 10005  90.0000  12.0000 0000000   0.0000 102.0000 13.81096544    15
CTC1_L_00346002-03
1 10006U 26928VF  26075.70033565  .00000000  00000+0  00000-0 0  9992
2 10006  90.0000  12.0000 0000000   0.0000 192.0000 13.81096544    15
CTC1_L_00346002-04
1 10007U 25119ZF  26075.70033565  .00000000  00000+0  00000-0 0  9994
2 10007  90.0000  12.0000 0000000   0.0000 282.0000 13.81096544    16
CTC1_L_00346003-01
1 10008U 24812SF  26075.70033565  .00000000  00000+0  00000-0 0  9994
2 10008  90.0000  24.0000 0000000   0.0000  24.0000 13.81096544    14
CTC1_L_00346003-02
1 10009U 26020CW  26075.70033565  .00000000  00000+0  00000-0 0  9998
2 10009  90.0000  24.0000 0000000   0.0000 114.0000 13.81096544    15
CTC1_L_00346003-03
1 10010U 25747PR  26075.70033565  .00000000  00000+0  00000-0 0  9995
2 10010  90.0000  24.0000 0000000   0.0000 204.0000 13.81096544    17
CTC1_L_00346003-04
1 10011U 25851ZD  26075.70033565  .00000000  00000+0  00000-0 0  9992
2 10011  90.0000  24.0000 0000000   0.0000 294.0000 13.81096544    17
CTC1_L_00346004-01
1 10012U 22185CN  26075.70033565  .00000000  00000+0  00000-0 0  9990
2 10012  90.0000  36.0000 0000000   0.0000  36.0000 13.81096544    15
CTC1_L_00346004-02
1 10013U 22805FA  26075.70033565  .00000000  00000+0  00000-0 0  9990
2 10013  90.0000  36.0000 0000000   0.0000 126.0000 13.81096544    16
CTC1_L_00346004-03
1 10014U 26687KY  26075.70033565  .00000000  00000+0  00000-0 0  9993
2 10014  90.0000  36.0000 0000000   0.0000 216.0000 13.81096544    17
CTC1_L_00346004-04
1 10015U 22145ZG  26075.70033565  .00000000  00000+0  00000-0 0  9999
2 10015  90.0000  36.0000 0000000   0.0000 306.0000 13.81096544    18
CTC1_L_00346005-01
1 10016U 22141LW  26075.70033565  .00000000  00000+0  00000-0 0  9996
2 10016  90.0000  48.0000 0000000   0.0000  48.0000 13.81096544    15
CTC1_L_00346005-02
1 10017U 22742JB  26075.70033565  .00000000  00000+0  00000-0 0  9994
2 10017  90.0000  48.0000 0000000   0.0000 138.0000 13.81096544    16
CTC1_L_00346005-03
1 10018U 24947VG  26075.70033565  .00000000  00000+0  00000-0 0  9994
2 10018  90.0000  48.0000 0000000   0.0000 228.0000 13.81096544    17
CTC1_L_00346005-04
1 10019U 26686KG  26075.70033565  .00000000  00000+0  00000-0 0  9997
2 10019  90.0000  48.0000 0000000   0.0000 318.0000 13.81096544    18
CTC1_L_00346006-01
1 10020U 25418TB  26075.70033565  .00000000  00000+0  00000-0 0  9991
2 10020  90.0000  60.0000 0000000   0.0000  60.0000 13.81096544    18
CTC1_L_00346006-02
1 10021U 26682PW  26075.70033565  .00000000  00000+0  00000-0 0  9996
2 10021  90.0000  60.0000 0000000   0.0000 150.0000 13.81096544    19
CTC1_L_00346006-03
1 10022U 24656DW  26075.70033565  .00000000  00000+0  00000-0 0  9996
2 10022  90.0000  60.0000 0000000   0.0000 240.0000 13.81096544    10
CTC1_L_00346006-04
1 10023U 25336RB  26075.70033565  .00000000  00000+0  00000-0 0  9993
2 10023  90.0000  60.0000 0000000   0.0000 330.0000 13.81096544    11
CTC1_L_00346007-01
1 10024U 26957YX  26075.70033565  .00000000  00000+0  00000-0 0  9994
2 10024  90.0000  72.0000 0000000   0.0000  72.0000 13.81096544    18
CTC1_L_00346007-02
1 10025U 23378R   26075.70033565  .00000000  00000+0  00000-0 0  9999
2 10025  90.0000  72.0000 0000000   0.0000 162.0000 13.81096544    19
CTC1_L_00346007-03
1 10026U 25850XF  26075.70033565  .00000000  00000+0  00000-0 0  9997
2 10026  90.0000  72.0000 0000000   0.0000 252.0000 13.81096544    10
CTC1_L_00346007-04
1 10027U 24069JZ  26075.70033565  .00000000  00000+0  00000-0 0  9999
2 10027  90.0000  72.0000 0000000   0.0000 342.0000 13.81096544    11
CTC1_L_00346008-01
1 10028U 22398WM  26075.70033565  .00000000  00000+0  00000-0 0  9993
2 10028  90.0000  84.0000 0000000   0.0000  84.0000 13.81096544    18
CTC1_L_00346008-02
1 10029U 25438XK  26075.70033565  .00000000  00000+0  00000-0 0  9992
2 10029  90.0000  84.0000 0000000   0.0000 174.0000 13.81096544    19
CTC1_L_00346008-03
1 10030U 22767KJ  26075.70033565  .00000000  00000+0  00000-0 0  9996
2 10030  90.0000  84.0000 0000000   0.0000 264.0000 13.81096544    11
CTC1_L_00346008-04
1 10031U 23477VV  26075.70033565  .00000000  00000+0  00000-0 0  9996
2 10031  90.0000  84.0000 0000000   0.0000 354.0000 13.81096544    12
CTC1_L_00346009-01
1 10032U 25073AC  26075.70033565  .00000000  00000+0  00000-0 0  9991
2 10032  90.0000  96.0000 0000000   0.0000  96.0000 13.81096544    19
CTC1_L_00346009-02
1 10033U 23931MV  26075.70033565  .00000000  00000+0  00000-0 0  9993
2 10033  90.0000  96.0000 0000000   0.0000 186.0000 13.81096544    10
CTC1_L_00346009-03
1 10034U 22137AF  26075.70033565  .00000000  00000+0  00000-0 0  9991
2 10034  90.0000  96.0000 0000000   0.0000 276.0000 13.81096544    11
CTC1_L_00346009-04
1 10035U 25536OH  26075.70033565  .00000000  00000+0  00000-0 0  9998
2 10035  90.0000  96.0000 0000000   0.0000   6.0000 13.81096544    13
CTC1_L_00346010-01
1 10036U 23493RR  26075.70033565  .00000000  00000+0  00000-0 0  9999
2 10036  90.0000 108.0000 0000000   0.0000 108.0000 13.81096544    11
CTC1_L_00346010-02
1 10037U 22990V   26075.70033565  .00000000  00000+0  00000-0 0  9991
2 10037  90.0000 108.0000 0000000   0.0000 198.0000 13.81096544    11
CTC1_L_00346010-03
1 10038U 26908IG  26075.70033565  .00000000  00000+0  00000-0 0  9995
2 10038  90.0000 108.0000 0000000   0.0000 288.0000 13.81096544    12
CTC1_L_00346010-04
1 10039U 25686GU  26075.70033565  .00000000  00000+0  00000-0 0  9998
2 10039  90.0000 108.0000 0000000   0.0000  18.0000 13.81096544    14
CTC1_L_00346011-01
1 10040U 23175DH  26075.70033565  .00000000  00000+0  00000-0 0  9991
2 10040  90.0000 120.0000 0000000   0.0000 120.0000 13.81096544    14
CTC1_L_00346011-02
1 10041U 26131ZC  26075.70033565  .00000000  00000+0  00000-0 0  9997
2 10041  90.0000 120.0000 0000000   0.0000 210.0000 13.81096544    15
CTC1_L_00346011-03
1 10042U 26588RK  26075.70033565  .00000000  00000+0  00000-0 0  9994
2 10042  90.0000 120.0000 0000000   0.0000 300.0000 13.81096544    16
CTC1_L_00346011-04
1 10043U 26024HK  26075.70033565  .00000000  00000+0  00000-0 0  9990
2 10043  90.0000 120.0000 0000000   0.0000  30.0000 13.81096544    17
CTC1_L_00346012-01
1 10044U 26692OU  26075.70033565  .00000000  00000+0  00000-0 0  9992
2 10044  90.0000 132.0000 0000000   0.0000 132.0000 13.81096544    14
CTC1_L_00346012-02
1 10045U 23282IE  26075.70033565  .00000000  00000+0  00000-0 0  9995
2 10045  90.0000 132.0000 0000000   0.0000 222.0000 13.81096544    15
CTC1_L_00346012-03
1 10046U 25860RE  26075.70033565  .00000000  00000+0  00000-0 0  9990
2 10046  90.0000 132.0000 0000000   0.0000 312.0000 13.81096544    16
CTC1_L_00346012-04
1 10047U 22188YM  26075.70033565  .00000000  00000+0  00000-0 0  9991
2 10047  90.0000 132.0000 0000000   0.0000  42.0000 13.81096544    17
CTC1_L_00346013-01
1 10048U 24570TS  26075.70033565  .00000000  00000+0  00000-0 0  9999
2 10048  90.0000 144.0000 0000000   0.0000 144.0000 13.81096544    14
CTC1_L_00346013-02
1 10049U 26475TR  26075.70033565  .00000000  00000+0  00000-0 0  9996
2 10049  90.0000 144.0000 0000000   0.0000 234.0000 13.81096544    15
CTC1_L_00346013-03
1 10050U 24524DD  26075.70033565  .00000000  00000+0  00000-0 0  9991
2 10050  90.0000 144.0000 0000000   0.0000 324.0000 13.81096544    17
CTC1_L_00346013-04
1 10051U 23496KD  26075.70033565  .00000000  00000+0  00000-0 0  9999
2 10051  90.0000 144.0000 0000000   0.0000  54.0000 13.81096544    18
CTC1_L_00346014-01
1 10052U 26779ZH  26075.70033565  .00000000  00000+0  00000-0 0  9997
2 10052  90.0000 156.0000 0000000   0.0000 156.0000 13.81096544    15
CTC1_L_00346014-02
1 10053U 24853IQ  26075.70033565  .00000000  00000+0  00000-0 0  9999
2 10053  90.0000 156.0000 0000000   0.0000 246.0000 13.81096544    16
CTC1_L_00346014-03
1 10054U 22145RI  26075.70033565  .00000000  00000+0  00000-0 0  9992
2 10054  90.0000 156.0000 0000000   0.0000 336.0000 13.81096544    17
CTC1_L_00346014-04
1 10055U 24485QA  26075.70033565  .00000000  00000+0  00000-0 0  9992
2 10055  90.0000 156.0000 0000000   0.0000  66.0000 13.81096544    18
CTC1_L_00346015-01
1 10056U 22844SX  26075.70033565  .00000000  00000+0  00000-0 0  9990
2 10056  90.0000 168.0000 0000000   0.0000 168.0000 13.81096544    15
CTC1_L_00346015-02
1 10057U 24568WK  26075.70033565  .00000000  00000+0  00000-0 0  9996
2 10057  90.0000 168.0000 0000000   0.0000 258.0000 13.81096544    16
CTC1_L_00346015-03
1 10058U 26987VN  26075.70033565  .00000000  00000+0  00000-0 0  9994
2 10058  90.0000 168.0000 0000000   0.0000 348.0000 13.81096544    17
CTC1_L_00346015-04
1 10059U 22562N   26075.70033565  .00000000  00000+0  00000-0 0  9990
2 10059  90.0000 168.0000 0000000   0.0000  78.0000 13.81096544    18
CTC1_L_00346016-01
1 10060U 24911WQ  26075.70033565  .00000000  00000+0  00000-0 0  9992
2 10060  90.0000 180.0000 0000000   0.0000 180.0000 13.81096544    18
CTC1_L_00346016-02
1 10061U 26264F   26075.70033565  .00000000  00000+0  00000-0 0  9996
2 10061  90.0000 180.0000 0000000   0.0000 270.0000 13.81096544    19
